COMMENT,ORIGINATOR,NORAD_CAT_ID,OBJECT_NAME,OBJECT_TYPE,CLASSIFICATION_TYPE,INTLDES,EPOCH,EPOCH_MICROSECONDS,MEAN_MOTION,ECCENTRICITY,INCLINATION,RA_OF_ASC_NODE,ARG_OF_PERICENTER,MEAN_ANOMALY,EPHEMERIS_TYPE,ELEMENT_SET_NO,REV_AT_EPOCH,BSTAR,MEAN_MOTION_DOT,MEAN_MOTION_DDOT,FILE,TLE_LINE0,TLE_LINE1,TLE_LINE2,OBJECT_ID,OBJECT_NUMBER,SEMIMAJOR_AXIS,PERIOD,APOGEE,PERIGEE,DECAYED
"GENERATED VIA SPACETRACK.ORG API","18 SPCS","48895","SPACEBEE-108","PAYLOAD","U","21059S","2023-04-26 14:16:30","916992","15.28327314","0.000759","97.5894","252.5042","102.4216","257.7872","0","999","10150","0.001023","0.00028246","0","3894260","0 SPACEBEE-108","1 48895U 21059S   23116.59480228  .00028246  00000-0  10230-2 0  9992","2 48895  97.5894 252.5042 0007590 102.4216 257.7872 15.28327314101506","2021-059S","48895","6858.949","94.221","486.020","475.608","0"
"GENERATED VIA SPACETRACK.ORG API","18 SPCS","48895","SPACEBEE-108","PAYLOAD","U","21059S","2023-04-27 07:33:35","538624","15.28371185","0.0007359","97.5899","253.2383","98.404","261.8034","0","999","10161","0.0010835","0.00029967","0","3894751","0 SPACEBEE-108","1 48895U 21059S   23117.31499466  .00029967  00000-0  10835-2 0  9999","2 48895  97.5899 253.2383 0007359  98.4040 261.8034 15.28371185101612","2021-059S","48895","6858.818","94.218","485.730","475.636","0"
"GENERATED VIA SPACETRACK.ORG API","18 SPCS","48895","SPACEBEE-108","PAYLOAD","U","21059S","2023-04-27 20:07:48","556416","15.28409806","0.0007401","97.5899","253.7719","97.0267","263.1814","0","999","10169","0.0012385","0.00034325","0","3894797","0 SPACEBEE-108","1 48895U 21059S   23117.83875644  .00034325  00000-0  12385-2 0  9998","2 48895  97.5899 253.7719 0007401  97.0267 263.1814 15.28409806101695","2021-059S","48895","6858.702","94.216","485.644","475.491","0"
"GENERATED VIA SPACETRACK.ORG API","18 SPCS","48895","SPACEBEE-108","PAYLOAD","U","21059S","2023-04-28 08:42:00","630720","15.28437857","0.0007393","97.5894","254.3058","95.9445","264.2637","0","999","10177","0.0010282","0.00028486","0","3895770","0 SPACEBEE-108","1 48895U 21059S   23118.36250730  .00028486  00000-0  10282-2 0  9995","2 48895  97.5894 254.3058 0007393  95.9445 264.2637 15.28437857101779","2021-059S","48895","6858.619","94.214","485.554","475.413","0"
"GENERATED VIA SPACETRACK.ORG API","18 SPCS","48895","SPACEBEE-108","PAYLOAD","U","21059S","2023-04-28 14:59:06","293760","15.28454368","0.0007354","97.5891","254.5728","95.7147","264.493","0","999","10181","0.0010612","0.00029421","0","3895827","0 SPACEBEE-108","1 48895U 21059S   23118.62437840  .00029421  00000-0  10612-2 0  9990","2 48895  97.5891 254.5728 0007354  95.7147 264.4930 15.28454368101815","2021-059S","48895","6858.569","94.213","485.478","475.390","0"
"GENERATED VIA SPACETRACK.ORG API","18 SPCS","48895","SPACEBEE-108","PAYLOAD","U","21059S","2023-04-29 09:50:21","846912","15.28504248","0.0007308","97.5889","255.3732","93.1939","267.0136","0","999","10193","0.0010839","0.000301","0","3896517","0 SPACEBEE-108","1 48895U 21059S   23119.40997508  .00030100  00000-0  10839-2 0  9996","2 48895  97.5889 255.3732 0007308  93.1939 267.0136 15.28504248101939","2021-059S","48895","6858.420","94.210","485.297","475.273","0"
"GENERATED VIA SPACETRACK.ORG API","18 SPCS","48895","SPACEBEE-108","PAYLOAD","U","21059S","2023-04-29 22:24:30","935232","15.28540757","0.0007273","97.5893","255.9072","91.4316","268.7756","0","999","10201","0.001165","0.00032404","0","3896913","0 SPACEBEE-108","1 48895U 21059S   23119.93369138  .00032404  00000-0  11650-2 0  9997","2 48895  97.5893 255.9072 0007273  91.4316 268.7756 15.28540757102019","2021-059S","48895","6858.311","94.207","485.164","475.188","0"
"GENERATED VIA SPACETRACK.ORG API","18 SPCS","48895","SPACEBEE-108","PAYLOAD","U","21059S","2023-04-30 07:50:07","133280","15.28563907","0.0007242","97.5894","256.3075","89.9976","270.2093","0","999","10207","0.0010841","0.0003016","0","3897442","0 SPACEBEE-108","1 48895U 21059S   23120.32647145  .00030160  00000-0  10841-2 0  9997","2 48895  97.5894 256.3075 0007242  89.9976 270.2093 15.28563907102078","2021-059S","48895","6858.242","94.206","485.073","475.140","0"
"GENERATED VIA SPACETRACK.ORG API","18 SPCS","48895","SPACEBEE-108","PAYLOAD","U","21059S","2023-05-01 10:32:36","924000","15.2862631","0.0007283","97.5896","257.4418","86.3144","273.8928","0","999","10224","0.00096771","0.00026954","0","3898053","0 SPACEBEE-108","1 48895U 21059S   23121.43931625  .00026954  00000-0  96771-3 0  9992","2 48895  97.5896 257.4418 0007283  86.3144 273.8928 15.28626310102249","2021-059S","48895","6858.055","94.202","484.915","474.925","0"
"GENERATED VIA SPACETRACK.ORG API","18 SPCS","48895","SPACEBEE-108","PAYLOAD","U","21059S","2023-05-01 21:32:26","907360","15.28651874","0.000724","97.5899","257.9087","85.0705","275.136","0","999","10231","0.0010022","0.00027943","0","3898518","0 SPACEBEE-108","1 48895U 21059S   23121.89753365  .00027943  00000-0  10022-2 0  9998","2 48895  97.5899 257.9087 0007240  85.0705 275.1360 15.28651874102317","2021-059S","48895","6857.978","94.201","484.809","474.878","0"
"GENERATED VIA SPACETRACK.ORG API","18 SPCS","48895","SPACEBEE-108","PAYLOAD","U","21059S","2023-05-02 08:32:16","138176","15.28681986","0.000718","97.5898","258.3761","83.0823","277.1233","0","999","10238","0.001155","0.00032263","0","3899068","0 SPACEBEE-108","1 48895U 21059S   23122.35574234  .00032263  00000-0  11550-2 0  9994","2 48895  97.5898 258.3761 0007180  83.0823 277.1233 15.28681986102387","2021-059S","48895","6857.888","94.199","484.677","474.829","0"
"GENERATED VIA SPACETRACK.ORG API","18 SPCS","48895","SPACEBEE-108","PAYLOAD","U","21059S","2023-05-02 19:32:04","653600","15.28708415","0.0007106","97.59","258.8428","81.9217","278.2829","0","999","10245","0.0010461","0.00029225","0","3899277","0 SPACEBEE-108","1 48895U 21059S   23122.81394275  .00029225  00000-0  10461-2 0  9994","2 48895  97.5900 258.8428 0007106  81.9217 278.2829 15.28708415102456","2021-059S","48895","6857.809","94.197","484.547","474.801","0"
"GENERATED VIA SPACETRACK.ORG API","18 SPCS","48895","SPACEBEE-108","PAYLOAD","U","21059S","2023-05-02 22:40:35","542848","15.28715781","0.0007105","97.5901","258.9764","81.4589","278.7455","0","999","10247","0.0010502","0.00029347","0","3899897","0 SPACEBEE-108","1 48895U 21059S   23122.94485582  .00029347  00000-0  10502-2 0  9991","2 48895  97.5901 258.9764 0007105  81.4589 278.7455 15.28715781102473","2021-059S","48895","6857.787","94.197","484.525","474.780","0"
"GENERATED VIA SPACETRACK.ORG API","18 SPCS","48895","SPACEBEE-108","PAYLOAD","U","21059S","2023-05-03 08:06:07","871904","15.28735477","0.0007091","97.5904","259.3768","79.3651","280.8386","0","999","10253","0.00093037","0.00025993","0","3899966","0 SPACEBEE-108","1 48895U 21059S   23123.33759111  .00025993  00000-0  93037-3 0  9995","2 48895  97.5904 259.3768 0007091  79.3651 280.8386 15.28735477102533","2021-059S","48895","6857.728","94.195","484.456","474.731","0"
"GENERATED VIA SPACETRACK.ORG API","18 SPCS","48895","SPACEBEE-108","PAYLOAD","U","21059S","2023-05-03 22:14:25","372320","15.28771975","0.0007063","97.5907","259.9772","77.6704","282.5326","0","999","10262","0.0010063","0.0002816","0","3900281","0 SPACEBEE-108","1 48895U 21059S   23123.92668255  .00028160  00000-0  10063-2 0  9994","2 48895  97.5907 259.9772 0007063  77.6704 282.5326 15.28771975102622","2021-059S","48895","6857.619","94.193","484.328","474.641","0"
"GENERATED VIA SPACETRACK.ORG API","18 SPCS","48895","SPACEBEE-108","PAYLOAD","U","21059S","2023-05-04 07:39:56","387232","15.2879489","0.0007072","97.5906","260.3776","76.4807","283.722","0","999","10268","0.0009808","0.00027462","0","3900645","0 SPACEBEE-108","1 48895U 21059S   23124.31940263  .00027462  00000-0  98080-3 0  9990","2 48895  97.5906 260.3776 0007072  76.4807 283.7220 15.28794890102685","2021-059S","48895","6857.551","94.192","484.265","474.566","0"
"GENERATED VIA SPACETRACK.ORG API","18 SPCS","48895","SPACEBEE-108","PAYLOAD","U","21059S","2023-05-04 07:39:56","387232","15.2879489","0.0007072","97.5906","260.3776","76.4807","283.722","0","999","10268","0.0009808","0.00027462","0","3900892","0 SPACEBEE-108","1 48895U 21059S   23124.31940263  .00027462  00000-0  98080-3 0  9990","2 48895  97.5906 260.3776 0007072  76.4807 283.7220 15.28794890102685","2021-059S","48895","6857.551","94.192","484.265","474.566","0"
"GENERATED VIA SPACETRACK.ORG API","18 SPCS","48895","SPACEBEE-108","PAYLOAD","U","21059S","2023-05-04 21:48:11","902176","15.28833195","0.0007079","97.5909","260.978","74.8525","285.3497","0","999","10277","0.0010496","0.00029436","0","3901186","0 SPACEBEE-108","1 48895U 21059S   23124.90847109  .00029436  00000-0  10496-2 0  9997","2 48895  97.5909 260.9780 0007079  74.8525 285.3497 15.28833195102771","2021-059S","48895","6857.436","94.189","484.156","474.447","0"
"GENERATED VIA SPACETRACK.ORG API","18 SPCS","48895","SPACEBEE-108","PAYLOAD","U","21059S","2023-05-05 10:22:11","339616","15.28865037","0.0007042","97.591","261.5121","72.4894","287.7114","0","999","10285","0.0010328","0.00028989","0","3901547","0 SPACEBEE-108","1 48895U 21059S   23125.43207569  .00028989  00000-0  10328-2 0  9992","2 48895  97.5910 261.5121 0007042  72.4894 287.7114 15.28865037102853","2021-059S","48895","6857.341","94.188","484.035","474.377","0"
"GENERATED VIA SPACETRACK.ORG API","18 SPCS","48895","SPACEBEE-108","PAYLOAD","U","21059S","2023-05-05 21:21:55","112544","15.28893093","0.0006981","97.5912","261.9791","71.1429","289.0567","0","999","10292","0.0010727","0.00030142","0","3901993","0 SPACEBEE-108","1 48895U 21059S   23125.89022121  .00030142  00000-0  10727-2 0  9998","2 48895  97.5912 261.9791 0006981  71.1429 289.0567 15.28893093102921","2021-059S","48895","6857.257","94.186","483.909","474.335","0"
